NORAD_CAT_ID,OBJECT_NAME,OBJECT_TYPE,EPOCH,MEAN_MOTION,ECCENTRICITY,INCLINATION,RA_OF_ASC_NODE,ARG_OF_PERICENTER,MEAN_ANOMALY,BSTAR,MEAN_MOTION_DOT,MEAN_MOTION_DDOT,TLE_LINE0,TLE_LINE1,TLE_LINE2,SEMIMAJOR_AXIS,PERIOD,APOGEE,PERIGEE,DECAYED
55771.0,STARLINK-5591,PAYLOAD,2024-03-04 20:43:00,14.98322567,0.0003146,69.9975,277.1969,262.9475,97.1326,0.00030677,3.568e-05,0.0,0 STARLINK-5591,1 55771U 23028AG  24064.86320415  .00003568  00000-0  30677-3 0  9993,2 55771  69.9975 277.1969 0003146 262.9475  97.1326 14.98322567 56468,6950.216,96.107,574.267,569.894,0.0
55771.0,STARLINK-5591,PAYLOAD,2024-03-04 22:19:09,14.98311268,0.00031,69.9975,277.0286,266.71,93.3704,0.00051486,6.053e-05,0.0,0 STARLINK-5591,1 55771U 23028AG  24064.92996704  .00006053  00000-0  51486-3 0  9993,2 55771  69.9975 277.0286 0003100 266.7100  93.3704 14.98311268 56471,6950.251,96.108,574.27,569.961,0.0
55771.0,STARLINK-5591,PAYLOAD,2024-03-05 14:20:29,14.98309591,0.0003524,69.9978,275.3451,265.3989,94.6768,0.00030168,3.507e-05,0.0,0 STARLINK-5591,1 55771U 23028AG  24065.59756933  .00003507  00000-0  30168-3 0  9990,2 55771  69.9978 275.3451 0003524 265.3989  94.6768 14.98309591 56570,6950.256,96.108,574.57,569.672,0.0
55771.0,STARLINK-5591,PAYLOAD,2024-03-05 23:57:18,14.98320759,0.0002885,69.9976,274.335,266.4208,93.6621,0.00015746,1.786e-05,0.0,0 STARLINK-5591,1 55771U 23028AG  24065.99812870  .00001786  00000-0  15746-3 0  9999,2 55771  69.9976 274.3350 0002885 266.4208  93.6621 14.98320759 56633,6950.221,96.108,574.092,570.081,0.0
55771.0,STARLINK-5591,PAYLOAD,2024-03-06 14:22:30,14.98333147,0.0002917,69.9981,272.8199,270.3104,89.7721,-6.5513e-05,-8.75e-06,0.0,0 STARLINK-5591,1 55771U 23028AG  24066.59896521 -.00000875  00000-0 -65513-4 0  9999,2 55771  69.9981 272.8199 0002917 270.3104  89.7721 14.98333147 56720,6950.183,96.107,574.076,570.021,0.0
55771.0,STARLINK-5591,PAYLOAD,2024-03-06 17:34:46,14.98332724,0.0002922,69.998,272.4833,270.3116,89.7708,-6.6192e-05,-8.83e-06,0.0,0 STARLINK-5591,1 55771U 23028AG  24066.73248521 -.00000883  00000-0 -66192-4 0  9999,2 55771  69.9980 272.4833 0002922 270.3116  89.7708 14.98332724 56746,6950.184,96.107,574.08,570.019,0.0
55771.0,STARLINK-5591,PAYLOAD,2024-03-07 14:24:31,14.98326473,0.0002862,69.9977,270.2947,271.2574,88.8257,1.9966e-05,1.45e-06,0.0,0 STARLINK-5591,1 55771U 23028AG  24067.60036663  .00000145  00000-0  19966-4 0  9994,2 55771  69.9977 270.2947 0002862 271.2574  88.8257 14.98326473 56872,6950.204,96.107,574.058,570.08,0.0
55771.0,STARLINK-5591,PAYLOAD,2024-03-08 00:01:20,14.98326428,0.0002865,69.9978,269.2849,270.3574,89.7256,1.6447e-05,1.03e-06,0.0,0 STARLINK-5591,1 55771U 23028AG  24068.00092745  .00000103  00000-0  16447-4 0  9997,2 55771  69.9978 269.2849 0002865 270.3574  89.7256 14.98326428 56931,6950.204,96.107,574.06,570.078,0.0
55771.0,STARLINK-5591,PAYLOAD,2024-03-08 06:25:52,14.98328825,0.0002872,69.9977,268.6116,269.7109,90.3721,2.7205e-05,2.32e-06,0.0,0 STARLINK-5591,1 55771U 23028AG  24068.26796589  .00000232  00000-0  27205-4 0  9999,2 55771  69.9977 268.6116 0002872 269.7109  90.3721 14.98328825 56976,6950.197,96.107,574.058,570.065,0.0
55771.0,STARLINK-5591,PAYLOAD,2024-03-08 19:14:56,14.9833182,0.0002877,69.9978,267.2643,267.314,92.769,3.5881e-05,3.35e-06,0.0,0 STARLINK-5591,1 55771U 23028AG  24068.80204330  .00000335  00000-0  35881-4 0  9990,2 55771  69.9978 267.2643 0002877 267.3140  92.7690 14.98331820 57051,6950.187,96.107,574.052,570.053,0.0
55771.0,STARLINK-5591,PAYLOAD,2024-03-09 19:16:57,14.98330354,0.0003068,69.9972,264.7384,268.1731,91.9077,1.6351e-05,1.02e-06,0.0,0 STARLINK-5591,1 55771U 23028AG  24069.80344409  .00000102  00000-0  16351-4 0  9996,2 55771  69.9972 264.7384 0003068 268.1731  91.9077 14.98330354 57205,6950.192,96.107,574.189,569.924,0.0
55771.0,STARLINK-5591,PAYLOAD,2024-03-10 09:42:10,14.98329611,0.0002752,69.9985,263.2229,269.333,90.7513,1.114e-06,-8e-07,0.0,0 STARLINK-5591,1 55771U 23028AG  24070.40428554 -.00000080  00000-0  11140-5 0  9996,2 55771  69.9985 263.2229 0002752 269.3330  90.7513 14.98329611 57293,6950.194,96.107,573.972,570.146,0.0
55771.0,STARLINK-5591,PAYLOAD,2024-03-10 20:55:06,14.9832105,0.0002904,69.9988,262.0458,269.8733,90.2093,0.00010345,1.141e-05,0.0,0 STARLINK-5591,1 55771U 23028AG  24070.87160704  .00001141  00000-0  10345-3 0  9999,2 55771  69.9988 262.0458 0002904 269.8733  90.2093 14.98321050 57363,6950.221,96.108,574.104,570.067,0.0
55771.0,STARLINK-5591,PAYLOAD,2024-03-10 22:31:14,14.98336731,0.0002993,69.999,261.8774,268.0635,92.0181,-0.00014317,-1.801e-05,0.0,0 STARLINK-5591,1 55771U 23028AG  24070.93836473 -.00001801  00000-0 -14317-3 0  9997,2 55771  69.9990 261.8774 0002993 268.0635  92.0181 14.98336731 57375,6950.172,96.107,574.117,569.957,0.0
55771.0,STARLINK-5591,PAYLOAD,2024-03-11 06:31:55,14.98330774,0.0002926,69.999,261.0356,270.1834,89.899,-1.4409e-06,-1.1e-06,0.0,0 STARLINK-5591,1 55771U 23028AG  24071.27216442 -.00000110  00000-0 -14409-5 0  9999,2 55771  69.9990 261.0356 0002926 270.1834  89.8990 14.98330774 57423,6950.19,96.107,574.089,570.022,0.0
55771.0,STARLINK-5591,PAYLOAD,2024-03-12 11:22:19,14.98330695,0.0002955,69.9989,258.0061,271.2776,88.8045,4.6034e-05,4.56e-06,0.0,0 STARLINK-5591,1 55771U 23028AG  24072.47384201  .00000456  00000-0  46034-4 0  9990,2 55771  69.9989 258.0061 0002955 271.2776  88.8045 14.98330695 57601,6950.191,96.107,574.11,570.002,0.0
55771.0,STARLINK-5591,PAYLOAD,2024-03-12 19:23:00,14.98331079,0.000297,69.9989,257.1644,271.3901,88.6918,4.0713e-05,3.93e-06,0.0,0 STARLINK-5591,1 55771U 23028AG  24072.80764163  .00000393  00000-0  40713-4 0  9994,2 55771  69.9989 257.1644 0002970 271.3901  88.6918 14.98331079 57655,6950.19,96.107,574.119,569.99,0.0
55771.0,STARLINK-5591,PAYLOAD,2024-03-13 11:24:20,14.98331843,0.0002811,69.9967,255.4804,271.5514,88.5323,-2.2223e-06,-1.2e-06,0.0,0 STARLINK-5591,1 55771U 23028AG  24073.47524146 -.00000120  00000-0 -22223-5 0  9990,2 55771  69.9967 255.4804 0002811 271.5514  88.5323 14.98331843 57755,6950.187,96.107,574.006,570.098,0.0
55771.0,STARLINK-5591,PAYLOAD,2024-03-13 22:37:17,14.98331818,0.0002823,69.997,254.3019,272.0404,88.0431,-2.7963e-06,-1.26e-06,0.0,0 STARLINK-5591,1 55771U 23028AG  24073.94256083 -.00000126  00000-0 -27963-5 0  9996,2 55771  69.9970 254.3019 0002823 272.0404  88.0431 14.98331818 57827,6950.187,96.107,574.014,570.09,0.0
55771.0,STARLINK-5591,PAYLOAD,2024-03-14 05:01:49,14.98332676,0.000283,69.9973,253.6287,272.148,87.9355,6.4889e-06,-1.6e-07,0.0,0 STARLINK-5591,1 55771U 23028AG  24074.20959956 -.00000016  00000-0  64889-5 0  9990,2 55771  69.9973 253.6287 0002830 272.1480  87.9355 14.98332676 57862,6950.185,96.107,574.017,570.083,0.0
55771.0,STARLINK-5591,PAYLOAD,2024-03-14 11:26:21,14.98332532,0.0002839,69.9975,252.9555,271.1893,88.8941,4.6396e-06,-3.8e-07,0.0,0 STARLINK-5591,1 55771U 23028AG  24074.47663909 -.00000038  00000-0  46396-5 0  9996,2 55771  69.9975 252.9555 0002839 271.1893  88.8941 14.98332532 57907,6950.185,96.107,574.023,570.077,0.0
55771.0,STARLINK-5591,PAYLOAD,2024-03-14 21:03:09,14.98332587,0.0002913,69.9992,251.9464,269.0012,91.0813,2.0374e-06,-6.9e-07,0.0,0 STARLINK-5591,1 55771U 23028AG  24074.87719822 -.00000069  00000-0  20374-5 0  9998,2 55771  69.9992 251.9464 0002913 269.0012  91.0813 14.98332587 57966,6950.185,96.107,574.074,570.025,0.0
55771.0,STARLINK-5591,PAYLOAD,2024-03-15 11:28:22,14.98329992,0.0002871,69.9995,250.4312,268.1694,91.9136,-1.6186e-06,-1.12e-06,0.0,0 STARLINK-5591,1 55771U 23028AG  24075.47803931 -.00000112  00000-0 -16186-5 0  9996,2 55771  69.9995 250.4312 0002871 268.1694  91.9136 14.98329992 58058,6950.193,96.107,574.053,570.063,0.0
55771.0,STARLINK-5591,PAYLOAD,2024-03-15 21:05:10,14.98330418,0.000291,69.9996,249.4212,268.4131,91.6695,-1.3327e-05,-2.52e-06,0.0,0 STARLINK-5591,1 55771U 23028AG  24075.87859915 -.00000252  00000-0 -13327-4 0  9991,2 55771  69.9996 249.4212 0002910 268.4131  91.6695 14.98330418 58118,6950.192,96.107,574.079,570.034,0.0
55771.0,STARLINK-5591,PAYLOAD,2024-03-16 13:06:31,14.98328444,0.0002942,69.9994,247.7384,267.7115,92.3707,-1.5701e-05,-2.8e-06,0.0,0 STARLINK-5591,1 55771U 23028AG  24076.54620039 -.00000280  00000-0 -15701-4 0  9998,2 55771  69.9994 247.7384 0002942 267.7115  92.3707 14.98328444 58215,6950.198,96.107,574.107,570.018,0.0
55771.0,STARLINK-5591,PAYLOAD,2024-03-16 14:42:39,14.98328448,0.0002949,69.9994,247.5702,267.6253,92.4568,-1.5333e-05,-2.76e-06,0.0,0 STARLINK-5591,1 55771U 23028AG  24076.61296041 -.00000276  00000-0 -15333-4 0  9994,2 55771  69.9994 247.5702 0002949 267.6253  92.4568 14.98328448 58227,6950.198,96.107,574.112,570.013,0.0
55771.0,STARLINK-5591,PAYLOAD,2024-03-16 21:07:12,14.98328278,0.0002977,69.9994,246.8967,267.6335,92.4484,-2.2142e-05,-3.57e-06,0.0,0 STARLINK-5591,1 55771U 23028AG  24076.88000091 -.00000357  00000-0 -22142-4 0  9997,2 55771  69.9994 246.8967 0002977 267.6335  92.4484 14.98328278 58266,6950.198,96.107,574.132,569.994,0.0
55771.0,STARLINK-5591,PAYLOAD,2024-03-17 13:08:32,14.9833094,0.0003044,69.9993,245.2132,268.5433,91.5377,2.8213e-05,2.44e-06,0.0,0 STARLINK-5591,1 55771U 23028AG  24077.54759768  .00000244  00000-0  28213-4 0  9991,2 55771  69.9993 245.2132 0003044 268.5433  91.5377 14.98330940 58368,6950.19,96.107,574.171,569.939,0.0
55771.0,STARLINK-5591,PAYLOAD,2024-03-17 14:44:40,14.9833115,0.0003042,69.9993,245.0448,268.5841,91.497,3.0211e-05,2.67e-06,0.0,0 STARLINK-5591,1 55771U 23028AG  24077.61435746  .00000267  00000-0  30211-4 0  9992,2 55771  69.9993 245.0448 0003042 268.5841  91.4970 14.98331150 58370,6950.189,96.107,574.169,569.94,0.0
55771.0,STARLINK-5591,PAYLOAD,2024-03-17 21:09:12,14.98333191,0.0003012,69.9995,244.3715,269.0032,91.0782,5.1308e-05,5.19e-06,0.0,0 STARLINK-5591,1 55771U 23028AG  24077.88139536  .00000519  00000-0  51308-4 0  9999,2 55771  69.9995 244.3715 0003012 269.0032  91.0782 14.98333191 58415,6950.183,96.107,574.141,569.955,0.0
